HULIANWANG DIGUI-146    
1 67522U 26013A   26049.25623088 -.00000062  00000+0  87657-4 0  9994
2 67522  50.0084  66.4927 0000563   6.8725 353.2172 13.69535244  4163
HULIANWANG DIGUI-147    
1 67523U 26013B   26049.18054612 -.00000065  00000+0  82999-4 0  9995
2 67523  50.0041  66.7437 0001199  26.8768 333.2184 13.70021404  4151
HULIANWANG DIGUI-148    
1 67524U 26013C   26049.53949433 -.00000039  00000+0  11144-3 0  9993
2 67524  50.0093  65.3320 0000222   0.6514 359.4376 13.70757018  4206
HULIANWANG DIGUI-149    
1 67525U 26013D   26049.17014518 -.00000042  00000+0  10930-3 0  9997
2 67525  50.0084  66.7073 0000841  99.8869 260.2116 13.70183160  4153
HULIANWANG DIGUI-150    
1 67526U 26013E   26049.16174603 -.00000040  00000+0  11103-3 0  9990
2 67526  50.0022  66.6346 0001340 141.6030 218.4955 13.70577258  4172
HULIANWANG DIGUI-151    
1 67527U 26013F   26049.58998728 -.00000034  00000+0  11813-3 0  9990
2 67527  50.0094  64.9347 0000344 139.2306 220.8610 13.70099842  4214
HULIANWANG DIGUI-152    
1 67528U 26013G   26049.15911776 -.00000031  00000+0  12066-3 0  9990
2 67528  50.0021  66.6201 0001751 135.0517 225.0516 13.70933611  4150
HULIANWANG DIGUI-153    
1 67529U 26013H   26049.14985909 -.00000123  00000+0  17772-4 0  9991
2 67529  50.0026  66.5725 0001735 188.7550 171.3310 13.71025036  4148
HULIANWANG DIGUI-154    
1 67530U 26013J   26049.14666165  .00000003  00000+0  15819-3 0  9998
2 67530  50.0061  66.5723 0001539 209.1373 150.9431 13.71139066  4146
CZ-12 R/B               
1 67531U 26013K   26044.30903653 -.00000106  00000+0  24917-4 0  9993
2 67531  49.9940  81.6091 0069052 213.8608 145.7882 14.14458025  3534
STARLINK-36587          
1 67532U 26014A   26049.62224127  .00390721  00000+0  19356-2 0  9990
2 67532  97.2833 293.6448 0002735 132.7003 227.4496 15.80985400  5577
STARLINK-36417          
1 67533U 26014B   26049.60476639  .00255000  00000+0  16526-2 0  9992
2 67533  97.2843 293.5135 0002291  72.6918 287.4598 15.75291659  5563
STARLINK-36576          
1 67534U 26014C   26049.58336806  .00000518  00000+0  43385-5 0  9999
2 67534  97.2836 293.5807 0001567  89.1198 353.7409 15.75200743  5618
STARLINK-36574          
1 67535U 26014D   26049.58336806 -.01882193  00000+0 -13411-1 0  9993
2 67535  97.2833 293.6081 0001945  71.0999  76.5438 15.76892767  5616
STARLINK-36572          
1 67536U 26014E   26049.59100171  .00269271  00000+0  17420-2 0  9997
2 67536  97.2818 293.5308 0001919 106.2080 253.9397 15.75294010  5569
STARLINK-36561          
1 67537U 26014F   26049.59699926  .00330641  00000+0  21210-2 0  9991
2 67537  97.2847 293.5225 0002165 132.3558 227.7891 15.75319240  5565
STARLINK-36397          
1 67538U 26014G   26049.60088299  .00309869  00000+0  19938-2 0  9991
2 67538  97.2845 293.5178 0001592 106.4365 253.7075 15.75306764  5562
STARLINK-36573          
1 67539U 26014H   26049.58336806  .00099135  00000+0  66052-3 0  9991
2 67539  97.2838 293.5973 0001469  95.6888  31.2685 15.75095056  5611
STARLINK-36585          
1 67540U 26014J   26049.59276533  .00225904  00000+0  14700-2 0  9991
2 67540  97.2843 293.5266 0001374  87.7295 272.4127 15.75279304  5567
STARLINK-36579          
1 67541U 26014K   26049.58500307  .00253677  00000+0  16452-2 0  9994
2 67541  97.2824 293.5377 0001427  75.8088 284.3336 15.75280315  5565
STARLINK-35934          
1 67542U 26014L   26049.58336806 -.00014797  00000+0 -98531-4 0  9996
2 67542  97.2838 293.6215 0001865 102.2560  80.6158 15.75182749  5605
STARLINK-36581          
1 67543U 26014M   26049.58336806  .00006397  00000+0  43719-4 0  9990
2 67543  97.2841 293.6023 0001558  95.8555  43.0117 15.75191287  5613
STARLINK-36565          
1 67544U 26014N   26049.62841372  .00352629  00000+0  22550-2 0  9995
2 67544  97.2844 293.6359 0002478 138.5223 221.6231 15.75330746  5579
STARLINK-36583          
1 67545U 26014P   26049.58888430  .00118553  00000+0  78315-3 0  9994
2 67545  97.2832 293.5311 0001645  91.1945 268.9509 15.75235901  5562
STARLINK-36580          
1 67546U 26014Q   26049.57088955  .00199642  00000+0  13032-2 0  9990
2 67546  97.2838 293.5609 0002602  81.1772 278.9788 15.75278149  5561
STARLINK-36584          
1 67547U 26014R   26049.58336806  .00005456  00000+0  37414-4 0  9994
2 67547  97.2846 293.6146 0001823  89.9548  80.8954 15.75196092  5616
STARLINK-36586          
1 67548U 26014S   26049.60481517  .00358107  00000+0  17821-2 0  9990
2 67548  97.2844 293.6670 0002399  83.3754 276.7787 15.80969483  5576
STARLINK-36564          
1 67549U 26014T   26049.57900528  .00242437  00000+0  15750-2 0  9992
2 67549  97.2827 293.5465 0001676  79.8888 280.2566 15.75271131  5502
STARLINK-36563          
1 67550U 26014U   26049.57477181  .00257049  00000+0  16674-2 0  9999
2 67550  97.2827 293.5514 0001702  71.7763 288.3687 15.75265328  5562
STARLINK-36566          
1 67551U 26014V   26049.57265256  .00348240  00000+0  22293-2 0  9996
2 67551  97.2831 293.5563 0001957  83.6453 276.5035 15.75319124  5551
STARLINK-36567          
1 67552U 26014W   26049.58112277  .00341411  00000+0  21883-2 0  9999
2 67552  97.2839 293.5408 0001683  79.5835 280.5620 15.75308784  5557
STARLINK-36569          
1 67553U 26014X   26049.61853326  .00239094  00000+0  15533-2 0  9999
2 67553  97.2850 293.6441 0002204 130.0417 230.1042 15.75280736  5564
STARLINK-36395          
1 67554U 26014Y   26049.57547602  .00287783  00000+0  18581-2 0  9996
2 67554  97.2837 293.5478 0001659  97.6029 262.5424 15.75288543  5555
STARLINK-36559          
1 67555U 26014Z   26049.57689158  .00273784  00000+0  17741-2 0  9993
2 67555  97.2838 293.5467 0003673  58.2143 301.9480 15.75240366  5554
MR-2                    
1 67556U 26015A   26049.62817692  .00000067  00000+0  82752-4 0  9995
2 67556  88.9963 280.6010 0005031  72.6332 287.5370 13.52686630  3682
MR-1                    
1 67557U 26015B   26049.62867283  .00000071  00000+0  89081-4 0  9994
2 67557  88.9963 280.6012 0005104  71.3970 288.7736 13.52661772  3689
ELECTRON R/B            
1 67558U 26015C   26049.63787686  .04716370 -14475-5  12815-2 0  9991
2 67558  88.9636 279.7240 0260955 167.7993 192.9778 15.79979851  4124
ELECTRON KICK STAGE R/B 
1 67559U 26015D   26049.63253171  .00044361 -16927-6  74284-3 0  9993
2 67559  89.0492 280.1634 0527205 239.8874 114.9097 14.68579598  3996
STARLINK-36426          
1 67560U 26014AA  26049.61253018  .00206933  00000+0  13498-2 0  9993
2 67560  97.2841 293.6546 0002065 131.5129 228.6314 15.75277084  5565
STARLINK-36621          
1 67561U 26016A   26049.35076710  .00168708  00000+0  11067-2 0  9996
2 67561  97.2833 108.8009 0001192  18.0360 342.0948 15.75253168  3754
STARLINK-36398          
1 67562U 26016B   26049.61229227  .00195308  00000+0  12784-2 0  9992
2 67562  97.2830 109.0554 0000841  99.8150 260.3210 15.75228471  3791
STARLINK-36403          
1 67563U 26016C   26049.13081319  .00160706  00000+0  82206-3 0  9999
2 67563  97.2832 108.6427 0001156  76.9117 283.2280 15.80877600  3721
STARLINK-36593          
1 67564U 26016D   26049.12958889  .00173563  00000+0  88604-3 0  9997
2 67564  97.2829 108.6440 0001619  68.2745 291.8696 15.80887540  3728
STARLINK-35725          
1 67565U 26016E   26049.14783787  .00148578  00000+0  97757-3 0  9990
2 67565  97.2835 108.6175 0001570  84.6192 275.5253 15.75241683  3729
STARLINK-36394          
1 67566U 26016F   26049.34018202  .00244446  00000+0  15879-2 0  9991
2 67566  97.2843 108.8121 0001087  48.3223 311.8135 15.75267807  3759
STARLINK-36352          
1 67567U 26016G   26049.12592644  .00213668  00000+0  10849-2 0  9999
2 67567  97.2833 108.6453 0001054 101.3592 258.7795 15.80902355  3726
STARLINK-36435          
1 67568U 26016H   26049.12367021  .00301319  00000+0  15098-2 0  9991
2 67568  97.2832 108.6480 0000749 140.9960 219.1363 15.80964595  3720
STARLINK-36575          
1 67569U 26016J   26049.56556994  .00156397  00000+0  80076-3 0  9992
2 67569  97.2826 109.1224 0001292 176.3521 183.7757 15.80868848  3790
STARLINK-36562          
1 67570U 26016K   26049.12155418  .00256092  00000+0  12918-2 0  9994
2 67570  97.2823 108.6544 0001778 102.7732 257.3735 15.80935124  3723
STARLINK-36578          
1 67571U 26016L   26049.40582485  .00062556  00000+0  41668-3 0  9999
2 67571  97.2839 108.8774 0001883 126.0070 234.1370 15.75218168  3767
STARLINK-36350          
1 67572U 26016M   26049.33453456  .00189804  00000+0  12417-2 0  9992
2 67572  97.2840 108.8201 0001502 102.0377 258.1057 15.75257662  3756
STARLINK-36588          
1 67573U 26016N   26049.14607209  .00122508  00000+0  80934-3 0  9997
2 67573  97.2841 108.6186 0000761  99.4344 260.7007 15.75223276  3722
STARLINK-36594          
1 67574U 26016P   26049.11684122  .00171789  00000+0  87650-3 0  9991
2 67574  97.2829 108.6582 0001815 124.3932 235.7508 15.80904045  3725
STARLINK-36400          
1 67575U 26016Q   26049.58336806 -.00070962  00000+0 -47805-3 0  9997
2 67575  97.2845 109.1185 0001399  61.8594 356.3292 15.75227821  4922
STARLINK-36591          
1 67576U 26016R   26049.58336806 -.00008701  00000+0 -57490-4 0  9992
2 67576  97.2839 109.1494 0001181  99.1262  27.0734 15.75204112  4970
STARLINK-36590          
1 67577U 26016S   26049.13231309  .00157715  00000+0  10367-2 0  9994
2 67577  97.2833 108.6360 0001636 115.5365 244.6069 15.75238405  3725
STARLINK-36613          
1 67578U 26016T   26049.61912298  .00297323  00000+0  14913-2 0  9992
2 67578  97.2826 109.1988 0000834  99.8203 260.3160 15.80952245  3801
STARLINK-36571          
1 67579U 26016U   26049.32677372  .00270812  00000+0  17519-2 0  9991
2 67579  97.2833 108.8317 0001460 101.4728 258.6702 15.75291173  3756
STARLINK-36612          
1 67580U 26016V   26049.61653933  .00439047  00000+0  21607-2 0  9992
2 67580  97.2826 109.2030 0001525  59.2359 300.9060 15.81006014  3808
